[{"OBJECT_NAME":"STARLINK-32658","OBJECT_ID":"2025-031U","EPOCH":"2026-03-09T12:54:28.373760","MEAN_MOTION":15.27589784,"ECCENTRICITY":0.0001566,"INCLINATION":43.0011,"RA_OF_ASC_NODE":144.0508,"ARG_OF_PERICENTER":269.4702,"MEAN_ANOMALY":90.597,"EPHEMERIS_TYPE":0,"CLASSIFICATION_TYPE":"U","NORAD_CAT_ID":62999,"ELEMENT_SET_NO":999,"REV_AT_EPOCH":6107,"BSTAR":0.0011798,"MEAN_MOTION_DOT":0.00032355,"MEAN_MOTION_DDOT":0},{"OBJECT_NAME":"ATLAS D R\/B","OBJECT_ID":"1965-078B","EPOCH":"2026-03-09T20:46:56.586144","MEAN_MOTION":13.36861601,"ECCENTRICITY":0.09711083,"INCLINATION":144.2243,"RA_OF_ASC_NODE":158.6484,"ARG_OF_PERICENTER":223.7615,"MEAN_ANOMALY":128.1873,"EPHEMERIS_TYPE":0,"CLASSIFICATION_TYPE":"U","NORAD_CAT_ID":1616,"ELEMENT_SET_NO":999,"REV_AT_EPOCH":73741,"BSTAR":0.00067418119,"MEAN_MOTION_DOT":7.934e-5,"MEAN_MOTION_DDOT":0}]
